NORAD_CAT_ID,OBJECT_NAME,OBJECT_TYPE,EPOCH,MEAN_MOTION,ECCENTRICITY,INCLINATION,RA_OF_ASC_NODE,ARG_OF_PERICENTER,MEAN_ANOMALY,BSTAR,MEAN_MOTION_DOT,MEAN_MOTION_DDOT,TLE_LINE0,TLE_LINE1,TLE_LINE2,SEMIMAJOR_AXIS,PERIOD,APOGEE,PERIGEE,DECAYED
50837.0,STARLINK-3318,PAYLOAD,2022-04-23 14:00:01,15.088120000000002,0.0001626,53.2182,46.2569,44.3774,303.1923,0.0015929,0.00025134,0.0,0 STARLINK-3318,1 50837U 22001AL  22113.58334491  .00025134  00000-0  15929-2 0  9997,2 50837  53.2182  46.2569 0001626  44.3774 303.1923 15.08812000  3630,6917.965999999999,95.439,540.956,538.706,0.0
50837.0,STARLINK-3318,PAYLOAD,2022-04-24 06:00:00,15.08837831,0.0001845,53.218,43.26600000000001,42.8225,327.9256,0.00086273,0.00013468,0.0,0 STARLINK-3318,1 50837U 22001AL  22114.25001157  .00013468  00000-0  86273-3 0  9990,2 50837  53.2180  43.2660 0001845  42.8225 327.9256 15.08837831 17923,6917.887,95.438,541.028,538.476,0.0
50837.0,STARLINK-3318,PAYLOAD,2022-04-24 14:00:01,15.08840052,0.0001681,53.2179,41.7678,48.1554,334.1933,-0.00051239,-8.434e-05,0.0,0 STARLINK-3318,1 50837U 22001AL  22114.58334491 -.00008434  00000-0 -51239-3 0  9999,2 50837  53.2179  41.7678 0001681  48.1554 334.1933 15.08840052  3617,6917.88,95.438,540.908,538.582,0.0
50837.0,STARLINK-3318,PAYLOAD,2022-04-24 22:00:00,15.08851227,0.0001695,53.2181,40.272,47.2873,346.6438,-0.0026486,-0.00042207,0.0,0 STARLINK-3318,1 50837U 22001AL  22114.91667824 -.00042207  00000-0 -26486-2 0  9996,2 50837  53.2181  40.2720 0001695  47.2873 346.6438 15.08851227 18026,6917.846,95.437,540.884,538.538,0.0
50837.0,STARLINK-3318,PAYLOAD,2022-04-25 14:00:01,15.08812973,0.0001634,53.218,37.2787,45.304,11.7887,0.00132,0.00020767,0.0,0 STARLINK-3318,1 50837U 22001AL  22115.58334491  .00020767  00000-0  13200-2 0  9996,2 50837  53.2180  37.2787 0001634  45.3040  11.7887 15.08812973 18126,6917.9630000000025,95.439,540.9580000000002,538.698,0.0
50837.0,STARLINK-3318,PAYLOAD,2022-04-25 22:00:00,15.08835941,0.0001781999999999,53.2183,35.783,48.2998,20.3644,-0.0018295,-0.00029284,0.0,0 STARLINK-3318,1 50837U 22001AL  22115.91667824 -.00029284  00000-0 -18295-2 0  9996,2 50837  53.2183  35.7830 0001782  48.2998  20.3644 15.08835941  3614,6917.893,95.438,540.991,538.525,0.0
50837.0,STARLINK-3318,PAYLOAD,2022-04-26 14:00:01,15.0883077,0.0001792,53.2186,32.7896,49.1456,42.7532,0.0017393,0.00027494,0.0,0 STARLINK-3318,1 50837U 22001AL  22116.58335648  .00027494  00000-0  17393-2 0  9993,2 50837  53.2186  32.7896 0001792  49.1456  42.7532 15.08830770 18273,6917.909000000002,95.438,541.013,538.534,0.0
50837.0,STARLINK-3318,PAYLOAD,2022-04-26 22:00:00,15.08854455,0.0001942,53.2188,31.2942,50.8492,52.583,-0.0015936,-0.00025571,0.0,0 STARLINK-3318,1 50837U 22001AL  22116.91667824 -.00025571  00000-0 -15936-2 0  9991,2 50837  53.2188  31.2942 0001942  50.8492  52.5830 15.08854455  3570,6917.8359999999975,95.437,541.045,538.3580000000002,0.0
50837.0,STARLINK-3318,PAYLOAD,2022-04-27 06:00:00,15.08827471,0.0002028,53.2188,29.7988,45.5026,69.5313,0.00096667,0.00015125,0.0,0 STARLINK-3318,1 50837U 22001AL  22117.25001157  .00015125  00000-0  96667-3 0  9993,2 50837  53.2188  29.7988 0002028  45.5026  69.5313 15.08827471 18378,6917.919,95.438,541.187,538.381,0.0
50837.0,STARLINK-3318,PAYLOAD,2022-04-27 14:00:01,15.08795104,0.0001891,53.2192,28.3007,51.2545,75.4079,0.0032075,0.00051067,0.0,0 STARLINK-3318,1 50837U 22001AL  22117.58335648  .00051067  00000-0  32075-2 0  9991,2 50837  53.2192  28.3007 0001891  51.2545  75.4079 15.08795104 18425,6918.018,95.44,541.191,538.5740000000002,0.0
50837.0,STARLINK-3318,PAYLOAD,2022-04-28 14:00:01,15.0884956,0.0001845,53.2195,23.812,51.4636,109.9502,0.0011860999999999,0.00018644,0.0,0 STARLINK-3318,1 50837U 22001AL  22118.58334491  .00018644  00000-0  11861-2 0  9991,2 50837  53.2195  23.8120 0001845  51.4636 109.9502 15.08849560 18572,6917.851,95.437,540.993,538.44,0.0
50837.0,STARLINK-3318,PAYLOAD,2022-04-29 06:00:00,15.08851439,0.0001961,53.2194,20.8211,45.5802,139.0569,-0.0024907,-0.00039723,0.0,0 STARLINK-3318,1 50837U 22001AL  22119.25001157 -.00039723  00000-0 -24907-2 0  9994,2 50837  53.2194  20.8211 0001961  45.5802 139.0569 15.08851439 18673,6917.845,95.437,541.067,538.354,0.0
50837.0,STARLINK-3318,PAYLOAD,2022-04-29 14:00:01,15.08793369,0.000168,53.2195,19.3232,48.5843,147.656,0.0039491,0.00063044,0.0,0 STARLINK-3318,1 50837U 22001AL  22119.58334491  .00063044  00000-0  39491-2 0  9995,2 50837  53.2195  19.3232 0001680  48.5843 147.6560 15.08793369  3606,6918.023,95.441,541.05,538.726,0.0
50837.0,STARLINK-3318,PAYLOAD,2022-04-29 22:00:00,15.08849987,0.0001753,53.2197,17.8284,46.7833,161.0212,-0.0031643,-0.00050311,0.0,0 STARLINK-3318,1 50837U 22001AL  22119.91667824 -.00050311  00000-0 -31643-2 0  9997,2 50837  53.2197  17.8284 0001753  46.7833 161.0212 15.08849987 18774,6917.85,95.437,540.928,538.502,0.0
50837.0,STARLINK-3318,PAYLOAD,2022-04-30 14:00:01,15.08790326,0.0001706,53.2191,14.8347,50.4186,180.5583,0.0040580999999999,0.00064803,0.0,0 STARLINK-3318,1 50837U 22001AL  22120.58334491  .00064803  00000-0  40581-2 0  9993,2 50837  53.2191  14.8347 0001706  50.4186 180.5583 15.08790326 18876,6918.031999999997,95.441,541.077,538.717,0.0
50837.0,STARLINK-3318,PAYLOAD,2022-04-30 22:00:00,15.08843336,0.0001821,53.219,13.34,48.5014,194.0342,-0.0015186,-0.00024378,0.0,0 STARLINK-3318,1 50837U 22001AL  22120.91667824 -.00024378  00000-0 -15186-2 0  9997,2 50837  53.2190  13.3400 0001821  48.5014 194.0342 15.08843336  3568,6917.87,95.437,540.995,538.475,0.0
50837.0,STARLINK-3318,PAYLOAD,2022-05-01 06:00:00,15.08828129,0.0001816,53.2185,11.8439,44.7212,209.4037,-7.3044e-05,-1.4499999999999992e-05,0.0,0 STARLINK-3318,1 50837U 22001AL  22121.25001157 -.00001450  00000-0 -73044-4 0  9991,2 50837  53.2185  11.8439 0001816  44.7212 209.4037 15.08828129 18986,6917.917,95.438,541.038,538.525,0.0
50837.0,STARLINK-3318,PAYLOAD,2022-05-01 14:00:01,15.08817427,0.0001686999999999,53.2184,10.345999999999998,51.8879,213.8178,0.00099411,0.00015559,0.0,0 STARLINK-3318,1 50837U 22001AL  22121.58334491  .00015559  00000-0  99411-3 0  9995,2 50837  53.2184  10.3460 0001687  51.8879 213.8178 15.08817427  3581,6917.949000000001,95.439,540.981,538.6469999999998,0.0
50837.0,STARLINK-3318,PAYLOAD,2022-05-01 22:00:01,15.08818735,0.000189,53.2184,8.8513,50.6517,226.6925,-0.00025074,-4.274e-05,0.0,0 STARLINK-3318,1 50837U 22001AL  22121.91668981 -.00004274  00000-0 -25074-3 0  9994,2 50837  53.2184   8.8513 0001890  50.6517 226.6925 15.08818735  3602,6917.945,95.439,541.118,538.503,0.0
50837.0,STARLINK-3318,PAYLOAD,2022-05-02 14:00:01,15.08810613,0.0001819,53.218,5.8572,54.6631,245.7647,0.003567,0.00056894,0.0,0 STARLINK-3318,1 50837U 22001AL  22122.58334491  .00056894  00000-0  35670-2 0  9999,2 50837  53.2180   5.8572 0001819  54.6631 245.7647 15.08810613 19182,6917.97,95.439,541.094,538.577,0.0
50837.0,STARLINK-3318,PAYLOAD,2022-05-02 22:00:01,15.08847792,0.0001973,53.218,4.3624,51.226000000000006,260.8463,-0.00037497,-6.252e-05,0.0,0 STARLINK-3318,1 50837U 22001AL  22122.91668981 -.00006252  00000-0 -37497-3 0  9995,2 50837  53.2180   4.3624 0001973  51.2260 260.8463 15.08847792  3596,6917.857,95.437,541.086,538.357,0.0
50837.0,STARLINK-3318,PAYLOAD,2022-05-03 04:00:00,15.08844178,0.0001992,53.2178,3.2406,47.9053,182.8043,0.0012052,0.00018947,0.0,0 STARLINK-3318,1 50837U 22001AL  22123.16667824  .00018947  00000-0  12052-2 0  9999,2 50837  53.2178   3.2406 0001992  47.9053 182.8043 15.08844178 19265,6917.868,95.437,541.111,538.355,0.0
50837.0,STARLINK-3318,PAYLOAD,2022-05-03 14:00:01,15.08813675,0.00018,53.2179,1.368,53.39,281.8365,0.0033573,0.00053511,0.0,0 STARLINK-3318,1 50837U 22001AL  22123.58334491  .00053511  00000-0  33573-2 0  9993,2 50837  53.2179   1.3680 0001800  53.3900 281.8365 15.08813675  3593,6917.9609999999975,95.439,541.071,538.581,0.0
50837.0,STARLINK-3318,PAYLOAD,2022-05-03 22:00:00,15.088511,0.0001973,53.2181,359.8733,49.4732,297.3421,-0.00028457,-4.816e-05,0.0,0 STARLINK-3318,1 50837U 22001AL  22123.91667824 -.00004816  00000-0 -28457-3 0  9991,2 50837  53.2181 359.8733 0001973  49.4732 297.3421 15.08851100 19380,6917.846,95.437,541.076,538.347,0.0
50837.0,STARLINK-3318,PAYLOAD,2022-05-04 14:00:01,15.08823406,0.000177,53.2182,356.8787,51.7274,318.319,0.0034591,0.0005517,0.0,0 STARLINK-3318,1 50837U 22001AL  22124.58334491  .00055170  00000-0  34591-2 0  9998,2 50837  53.2182 356.8787 0001770  51.7274 318.3190 15.08823406  3602,6917.931,95.439,541.021,538.572,0.0
50837.0,STARLINK-3318,PAYLOAD,2022-05-04 22:00:01,15.08867524,0.0001921,53.2184,355.384,46.2492,335.4569,-0.0030769,-0.00048962,0.0,0 STARLINK-3318,1 50837U 22001AL  22124.91668981 -.00048962  00000-0 -30769-2 0  9995,2 50837  53.2184 355.3840 0001921  46.2492 335.4569 15.08867524  3617,6917.795999999999,95.436,540.99,538.332,0.0
50837.0,STARLINK-3318,PAYLOAD,2022-05-05 06:00:00,15.08854037,0.000185,53.2184,353.8871,43.2048,350.0402,-0.0012789,-0.00020592,0.0,0 STARLINK-3318,1 50837U 22001AL  22125.25001157 -.00020592  00000-0 -12789-2 0  9990,2 50837  53.2184 353.8871 0001850  43.2048 350.0402 15.08854037 19586,6917.837,95.437,540.982,538.423,0.0
50837.0,STARLINK-3318,PAYLOAD,2022-05-05 14:00:01,15.08837777,0.0001815,53.2188,352.3895,51.6121,353.2369,0.00013949,1.932e-05,0.0,0 STARLINK-3318,1 50837U 22001AL  22125.58334491  .00001932  00000-0  13949-3 0  9991,2 50837  53.2188 352.3895 0001815  51.6121 353.2369 15.08837777  3577,6917.887,95.438,541.008,538.497,0.0
50837.0,STARLINK-3318,PAYLOAD,2022-05-05 22:00:00,15.08832952,0.0002028,53.2187,350.8949,48.5466,7.8972,-0.0001212,-2.216e-05,0.0,0 STARLINK-3318,1 50837U 22001AL  22125.91667824 -.00002216  00000-0 -12120-3 0  9995,2 50837  53.2187 350.8949 0002028  48.5466   7.8972 15.08832952  3575,6917.901999999999,95.438,541.17,538.364,0.0
